STARLINK-2566_new
1 18287C 21036M   21326.15626508  .00006284  00000-0  42100-3 0  3262
2 18287  53.0540 283.0285 0001835  69.2886   3.3875 15.06395629    15
STARLINK-2566_old
1 28287C 21036M   21325.13717598  .00002793  00000-0  18719-3 0  3258
2 28287  53.0541 287.6032 0001754  70.0334 233.0519 15.06385904    16
